<?xml version="1.0" encoding="UTF-8"?>
<ndm xmlns:xsi="http://www.w3.org/2001/XMLSchema-instance" xsi:noNamespaceSchemaLocation="https://sanaregistry.org/r/ndmxml_unqualified/ndmxml-2.0.0-master-2.0.xsd">
<omm id="CCSDS_OMM_VERS" version="2.0">
<header><CREATION_DATE/><ORIGINATOR/></header><body><segment><metadata><OBJECT_NAME>ONEWEB-0012</OBJECT_NAME><OBJECT_ID>2019-010A</OBJECT_ID><CENTER_NAME>EARTH</CENTER_NAME><REF_FRAME>TEME</REF_FRAME><TIME_SYSTEM>UTC</TIME_SYSTEM><MEAN_ELEMENT_THEORY>SGP4</MEAN_ELEMENT_THEORY></metadata><data><meanElements><EPOCH>2024-10-24T13:45:25.569504</EPOCH><MEAN_MOTION>13.16590068</MEAN_MOTION><ECCENTRICITY>.0002711</ECCENTRICITY><INCLINATION>87.9132</INCLINATION><RA_OF_ASC_NODE>348.4490</RA_OF_ASC_NODE><ARG_OF_PERICENTER>98.8436</ARG_OF_PERICENTER><MEAN_ANOMALY>261.3002</MEAN_ANOMALY></meanElements><tleParameters><EPHEMERIS_TYPE>0</EPHEMERIS_TYPE><CLASSIFICATION_TYPE>U</CLASSIFICATION_TYPE><NORAD_CAT_ID>44057</NORAD_CAT_ID><ELEMENT_SET_NO>999</ELEMENT_SET_NO><REV_AT_EPOCH>27253</REV_AT_EPOCH><BSTAR>.15287E-3</BSTAR><MEAN_MOTION_DOT>.71E-6</MEAN_MOTION_DOT><MEAN_MOTION_DDOT>0</MEAN_MOTION_DDOT></tleParameters></data></segment></body></omm>
<omm id="CCSDS_OMM_VERS" version="2.0">
<header><CREATION_DATE/><ORIGINATOR/></header><body><segment><metadata><OBJECT_NAME>ONEWEB-0010</OBJECT_NAME><OBJECT_ID>2019-010B</OBJECT_ID><CENTER_NAME>EARTH</CENTER_NAME><REF_FRAME>TEME</REF_FRAME><TIME_SYSTEM>UTC</TIME_SYSTEM><MEAN_ELEMENT_THEORY>SGP4</MEAN_ELEMENT_THEORY></metadata><data><meanElements><EPOCH>2024-10-24T12:32:28.124736</EPOCH><MEAN_MOTION>13.16592982</MEAN_MOTION><ECCENTRICITY>.0002206</ECCENTRICITY><INCLINATION>87.9135</INCLINATION><RA_OF_ASC_NODE>348.4398</RA_OF_ASC_NODE><ARG_OF_PERICENTER>84.6714</ARG_OF_PERICENTER><MEAN_ANOMALY>275.4668</MEAN_ANOMALY></meanElements><tleParameters><EPHEMERIS_TYPE>0</EPHEMERIS_TYPE><CLASSIFICATION_TYPE>U</CLASSIFICATION_TYPE><NORAD_CAT_ID>44058</NORAD_CAT_ID><ELEMENT_SET_NO>999</ELEMENT_SET_NO><REV_AT_EPOCH>27257</REV_AT_EPOCH><BSTAR>.14761E-3</BSTAR><MEAN_MOTION_DOT>.69E-6</MEAN_MOTION_DOT><MEAN_MOTION_DDOT>0</MEAN_MOTION_DDOT></tleParameters></data></segment></body></omm>
<omm id="CCSDS_OMM_VERS" version="2.0">
<header><CREATION_DATE/><ORIGINATOR/></header><body><segment><metadata><OBJECT_NAME>ONEWEB-0008</OBJECT_NAME><OBJECT_ID>2019-010C</OBJECT_ID><CENTER_NAME>EARTH</CENTER_NAME><REF_FRAME>TEME</REF_FRAME><TIME_SYSTEM>UTC</TIME_SYSTEM><MEAN_ELEMENT_THEORY>SGP4</MEAN_ELEMENT_THEORY></metadata><data><meanElements><EPOCH>2024-10-24T16:47:48.588288</EPOCH><MEAN_MOTION>13.16591711</MEAN_MOTION><ECCENTRICITY>.0001646</ECCENTRICITY><INCLINATION>87.9133</INCLINATION><RA_OF_ASC_NODE>348.4057</RA_OF_ASC_NODE><ARG_OF_PERICENTER>98.6947</ARG_OF_PERICENTER><MEAN_ANOMALY>261.4370</MEAN_ANOMALY></meanElements><tleParameters><EPHEMERIS_TYPE>0</EPHEMERIS_TYPE><CLASSIFICATION_TYPE>U</CLASSIFICATION_TYPE><NORAD_CAT_ID>44059</NORAD_CAT_ID><ELEMENT_SET_NO>999</ELEMENT_SET_NO><REV_AT_EPOCH>27272</REV_AT_EPOCH><BSTAR>-.13759E-3</BSTAR><MEAN_MOTION_DOT>-.4E-6</MEAN_MOTION_DOT><MEAN_MOTION_DDOT>0</MEAN_MOTION_DDOT></tleParameters></data></segment></body></omm>
<omm id="CCSDS_OMM_VERS" version="2.0">
<header><CREATION_DATE/><ORIGINATOR/></header><body><segment><metadata><OBJECT_NAME>ONEWEB-0007</OBJECT_NAME><OBJECT_ID>2019-010D</OBJECT_ID><CENTER_NAME>EARTH</CENTER_NAME><REF_FRAME>TEME</REF_FRAME><TIME_SYSTEM>UTC</TIME_SYSTEM><MEAN_ELEMENT_THEORY>SGP4</MEAN_ELEMENT_THEORY></metadata><data><meanElements><EPOCH>2024-10-24T11:40:03.640800</EPOCH><MEAN_MOTION>13.15546929</MEAN_MOTION><ECCENTRICITY>.000222</ECCENTRICITY><INCLINATION>87.9131</INCLINATION><RA_OF_ASC_NODE>18.7755</RA_OF_ASC_NODE><ARG_OF_PERICENTER>100.7062</ARG_OF_PERICENTER><MEAN_ANOMALY>259.4318</MEAN_ANOMALY></meanElements><tleParameters><EPHEMERIS_TYPE>0</EPHEMERIS_TYPE><CLASSIFICATION_TYPE>U</CLASSIFICATION_TYPE><NORAD_CAT_ID>44060</NORAD_CAT_ID><ELEMENT_SET_NO>999</ELEMENT_SET_NO><REV_AT_EPOCH>27239</REV_AT_EPOCH><BSTAR>-.40748E-3</BSTAR><MEAN_MOTION_DOT>-.141E-5</MEAN_MOTION_DOT><MEAN_MOTION_DDOT>0</MEAN_MOTION_DDOT></tleParameters></data></segment></body></omm>
<omm id="CCSDS_OMM_VERS" version="2.0">
<header><CREATION_DATE/><ORIGINATOR/></header><body><segment><metadata><OBJECT_NAME>ONEWEB-0006</OBJECT_NAME><OBJECT_ID>2019-010E</OBJECT_ID><CENTER_NAME>EARTH</CENTER_NAME><REF_FRAME>TEME</REF_FRAME><TIME_SYSTEM>UTC</TIME_SYSTEM><MEAN_ELEMENT_THEORY>SGP4</MEAN_ELEMENT_THEORY></metadata><data><meanElements><EPOCH>2024-10-24T11:45:45.515232</EPOCH><MEAN_MOTION>13.15548081</MEAN_MOTION><ECCENTRICITY>.0002143</ECCENTRICITY><INCLINATION>87.9121</INCLINATION><RA_OF_ASC_NODE>18.7465</RA_OF_ASC_NODE><ARG_OF_PERICENTER>96.9451</ARG_OF_PERICENTER><MEAN_ANOMALY>263.1923</MEAN_ANOMALY></meanElements><tleParameters><EPHEMERIS_TYPE>0</EPHEMERIS_TYPE><CLASSIFICATION_TYPE>U</CLASSIFICATION_TYPE><NORAD_CAT_ID>44061</NORAD_CAT_ID><ELEMENT_SET_NO>999</ELEMENT_SET_NO><REV_AT_EPOCH>27244</REV_AT_EPOCH><BSTAR>.3792E-4</BSTAR><MEAN_MOTION_DOT>.27E-6</MEAN_MOTION_DOT><MEAN_MOTION_DDOT>0</MEAN_MOTION_DDOT></tleParameters></data></segment></body></omm>
<omm id="CCSDS_OMM_VERS" version="2.0">
<header><CREATION_DATE/><ORIGINATOR/></header><body><segment><metadata><OBJECT_NAME>ONEWEB-0011</OBJECT_NAME><OBJECT_ID>2019-010F</OBJECT_ID><CENTER_NAME>EARTH</CENTER_NAME><REF_FRAME>TEME</REF_FRAME><TIME_SYSTEM>UTC</TIME_SYSTEM><MEAN_ELEMENT_THEORY>SGP4</MEAN_ELEMENT_THEORY></metadata><data><meanElements><EPOCH>2024-10-24T11:02:23.006400</EPOCH><MEAN_MOTION>13.15551203</MEAN_MOTION><ECCENTRICITY>.0001723</ECCENTRICITY><INCLINATION>87.9125</INCLINATION><RA_OF_ASC_NODE>18.7557</RA_OF_ASC_NODE><ARG_OF_PERICENTER>91.5561</ARG_OF_PERICENTER><MEAN_ANOMALY>268.5767</MEAN_ANOMALY></meanElements><tleParameters><EPHEMERIS_TYPE>0</EPHEMERIS_TYPE><CLASSIFICATION_TYPE>U</CLASSIFICATION_TYPE><NORAD_CAT_ID>44062</NORAD_CAT_ID><ELEMENT_SET_NO>999</ELEMENT_SET_NO><REV_AT_EPOCH>27243</REV_AT_EPOCH><BSTAR>.26291E-3</BSTAR><MEAN_MOTION_DOT>.112E-5</MEAN_MOTION_DOT><MEAN_MOTION_DDOT>0</MEAN_MOTION_DDOT></tleParameters></data></segment></body></omm>
<omm id="CCSDS_OMM_VERS" version="2.0">
<header><CREATION_DATE/><ORIGINATOR/></header><body><segment><metadata><OBJECT_NAME>ONEWEB-0013</OBJECT_NAME><OBJECT_ID>2020-008A</OBJECT_ID><CENTER_NAME>EARTH</CENTER_NAME><REF_FRAME>TEME</REF_FRAME><TIME_SYSTEM>UTC</TIME_SYSTEM><MEAN_ELEMENT_THEORY>SGP4</MEAN_ELEMENT_THEORY></metadata><data><meanElements><EPOCH>2024-10-24T13:38:29.044608</EPOCH><MEAN_MOTION>13.09399628</MEAN_MOTION><ECCENTRICITY>.000186</ECCENTRICITY><INCLINATION>87.8677</INCLINATION><RA_OF_ASC_NODE>173.7482</RA_OF_ASC_NODE><ARG_OF_PERICENTER>109.2543</ARG_OF_PERICENTER><MEAN_ANOMALY>250.8785</MEAN_ANOMALY></meanElements><tleParameters><EPHEMERIS_TYPE>0</EPHEMERIS_TYPE><CLASSIFICATION_TYPE>U</CLASSIFICATION_TYPE><NORAD_CAT_ID>45131</NORAD_CAT_ID><ELEMENT_SET_NO>999</ELEMENT_SET_NO><REV_AT_EPOCH>22746</REV_AT_EPOCH><BSTAR>.21252E-2</BSTAR><MEAN_MOTION_DOT>.744E-5</MEAN_MOTION_DOT><MEAN_MOTION_DDOT>0</MEAN_MOTION_DDOT></tleParameters></data></segment></body></omm>
<omm id="CCSDS_OMM_VERS" version="2.0">
<header><CREATION_DATE/><ORIGINATOR/></header><body><segment><metadata><OBJECT_NAME>ONEWEB-0017</OBJECT_NAME><OBJECT_ID>2020-008B</OBJECT_ID><CENTER_NAME>EARTH</CENTER_NAME><REF_FRAME>TEME</REF_FRAME><TIME_SYSTEM>UTC</TIME_SYSTEM><MEAN_ELEMENT_THEORY>SGP4</MEAN_ELEMENT_THEORY></metadata><data><meanElements><EPOCH>2024-10-24T16:14:54.126240</EPOCH><MEAN_MOTION>13.10427570</MEAN_MOTION><ECCENTRICITY>.0002891</ECCENTRICITY><INCLINATION>87.8903</INCLINATION><RA_OF_ASC_NODE>155.8310</RA_OF_ASC_NODE><ARG_OF_PERICENTER>98.4769</ARG_OF_PERICENTER><MEAN_ANOMALY>261.6686</MEAN_ANOMALY></meanElements><tleParameters><EPHEMERIS_TYPE>0</EPHEMERIS_TYPE><CLASSIFICATION_TYPE>U</CLASSIFICATION_TYPE><NORAD_CAT_ID>45132</NORAD_CAT_ID><ELEMENT_SET_NO>999</ELEMENT_SET_NO><REV_AT_EPOCH>23007</REV_AT_EPOCH><BSTAR>.24372E-2</BSTAR><MEAN_MOTION_DOT>.864E-5</MEAN_MOTION_DOT><MEAN_MOTION_DDOT>0</MEAN_MOTION_DDOT></tleParameters></data></segment></body></omm>

</ndm>
