[
  {
    "name": "ONEWEB-0012             \r",
    "tleLine1": "1 44057U 19010A   24298.57321261  .00000071  00000+0  15287-3 0  9996\r",
    "tleLine2": "2 44057  87.9132 348.4490 0002711  98.8436 261.3002 13.16590068272535\r"
  },
  {
    "name": "ONEWEB-0010             \r",
    "tleLine1": "1 44058U 19010B   24298.52254774  .00000069  00000+0  14761-3 0  9999\r",
    "tleLine2": "2 44058  87.9135 348.4398 0002206  84.6714 275.4668 13.16592982272572\r"
  },
  {
    "name": "ONEWEB-0008             \r",
    "tleLine1": "1 44059U 19010C   24298.69986792 -.00000040  00000+0 -13759-3 0  9997\r",
    "tleLine2": "2 44059  87.9133 348.4057 0001646  98.6947 261.4370 13.16591711272724\r"
  },
  {
    "name": "ONEWEB-0007             \r",
    "tleLine1": "1 44060U 19010D   24298.48615325 -.00000141  00000+0 -40748-3 0  9997\r",
    "tleLine2": "2 44060  87.9131  18.7755 0002220 100.7062 259.4318 13.15546929272390\r"
  },
  {
    "name": "ONEWEB-0006             \r",
    "tleLine1": "1 44061U 19010E   24298.49011013  .00000027  00000+0  37920-4 0  9993\r",
    "tleLine2": "2 44061  87.9121  18.7465 0002143  96.9451 263.1923 13.15548081272441\r"
  },
  {
    "name": "ONEWEB-0011             \r",
    "tleLine1": "1 44062U 19010F   24298.45998850  .00000112  00000+0  26291-3 0  9996\r",
    "tleLine2": "2 44062  87.9125  18.7557 0001723  91.5561 268.5767 13.15551203272438\r"
  },
  {
    "name": "ONEWEB-0013             \r",
    "tleLine1": "1 45131U 20008A   24298.56839172  .00000744  00000+0  21252-2 0  9998\r",
    "tleLine2": "2 45131  87.8677 173.7482 0001860 109.2543 250.8785 13.09399628227466\r"
  },
  {
    "name": "ONEWEB-0017             \r",
    "tleLine1": "1 45132U 20008B   24298.67701535  .00000864  00000+0  24372-2 0  9991\r",
    "tleLine2": "2 45132  87.8903 155.8310 0002891  98.4769 261.6686 13.10427570230075\r"
  }
]